[{"OBJECT_NAME":"ICEYE-X26","OBJECT_ID":"2023-084AF","EPOCH":"2026-03-09T22:36:43.632288","MEAN_MOTION":15.73279775,"ECCENTRICITY":9.181e-5,"INCLINATION":97.5771,"RA_OF_ASC_NODE":224.5701,"ARG_OF_PERICENTER":250.447,"MEAN_ANOMALY":109.6694,"EPHEMERIS_TYPE":0,"CLASSIFICATION_TYPE":"U","NORAD_CAT_ID":56961,"ELEMENT_SET_NO":999,"REV_AT_EPOCH":15354,"BSTAR":0.00052391916,"MEAN_MOTION_DOT":0.00072488,"MEAN_MOTION_DDOT":0},{"OBJECT_NAME":"STARLINK-11681 [DTC]","OBJECT_ID":"2025-089E","EPOCH":"2026-03-08T23:53:44.319840","MEAN_MOTION":15.7091411,"ECCENTRICITY":0.0001807,"INCLINATION":43,"RA_OF_ASC_NODE":296.6686,"ARG_OF_PERICENTER":299.2612,"MEAN_ANOMALY":60.8075,"EPHEMERIS_TYPE":0,"CLASSIFICATION_TYPE":"U","NORAD_CAT_ID":63755,"ELEMENT_SET_NO":999,"REV_AT_EPOCH":5002,"BSTAR":0.0028339503,"MEAN_MOTION_DOT":0.00381571,"MEAN_MOTION_DDOT":0}]
